ENTRYSAT                
1 44429U 98067QP  19361.62256738  .00009119  00000-0  14257-3 0  9994
2 44429  51.6410 118.9282 0002897  50.9357 309.1892 15.54566054 27606
VCC C                   
1 44430U 98067QQ  19361.61359521  .00011721  00000-0  17899-3 0  9996
2 44430  51.6410 118.8716 0002958  59.2619 300.8663 15.54895704 26431
VCC B                   
1 44431U 98067QR  19361.58046099  .00007277  00000-0  11688-3 0  9997
2 44431  51.6416 119.3990 0003324  58.5957 301.5359 15.54173018 27532
DUCHIFAT-3              
1 44854U 19089C   19361.77209614  .00000181  00000-0  21113-4 0  9990
2 44854  36.9683  38.7571 0007322  99.5660 260.5912 14.98936468  2377
